{"type": "FeatureCollection", "features": [ {"type": "Feature", "properties": {"norad_id": 66945, "name": "STARLINK-36110", "group": "last-30-days", "lat": 35.20294597558941, "lon": 75.3486149818237, "alt_km": 281.67465607066515, "timestamp": "2025-12-14T03:55:51.550868+00:00", "meta": {"OBJECT_NAME": "STARLINK-36110", "OBJECT_ID": "2025-286W", "EPOCH": "2025-12-13T06:00:02.000160", "MEAN_MOTION": 15.97830571, "ECCENTRICITY": 9.061e-05, "INCLINATION": 53.1564, "RA_OF_ASC_NODE": 48.0986, "ARG_OF_PERICENTER": 77.0987, "MEAN_ANOMALY": 113.5361, "EPHEMERIS_TYPE": 0, "CLASSIFICATION_TYPE": "U", "NORAD_CAT_ID": 66945, "ELEMENT_SET_NO": 999, "REV_AT_EPOCH": 207, "BSTAR": -0.0027860232, "MEAN_MOTION_DOT": -0.01292539, "MEAN_MOTION_DDOT": 0.00051716509}, "tle": {"line1": "1 66945U 25286W   25347.25002315 -.01292539  51717-3 -27860-2 0  9994", "line2": "2 66945  53.1564  48.0986 0000906  77.0987 113.5361 15.97830571  2079"}}, "geometry": {"type": "Point", "coordinates": [75.3486149818237, 35.20294597558941]}}, {"type": "Feature", "properties": {"norad_id": 66946, "name": "STARLINK-36115", "group": "last-30-days", "lat": 36.25003335940014, "lon": 76.76017644934004, "alt_km": 281.24296046854124, "timestamp": "2025-12-14T03:55:51.550877+00:00", "meta": {"OBJECT_NAME": "STARLINK-36115", "OBJECT_ID": "2025-286X", "EPOCH": "2025-12-13T06:00:02.000160", "MEAN_MOTION": 15.97912312, "ECCENTRICITY": 9.58e-05, "INCLINATION": 53.1565, "RA_OF_ASC_NODE": 48.0958, "ARG_OF_PERICENTER": 74.4517, "MEAN_ANOMALY": 117.4812, "EPHEMERIS_TYPE": 0, "CLASSIFICATION_TYPE": "U", "NORAD_CAT_ID": 66946, "ELEMENT_SET_NO": 999, "REV_AT_EPOCH": 207, "BSTAR": -0.0027852589, "MEAN_MOTION_DOT": -0.01298017, "MEAN_MOTION_DDOT": 0.00052161209}, "tle": {"line1": "1 66946U 25286X   25347.25002315 -.01298017  52161-3 -27853-2 0  9998", "line2": "2 66946  53.1565  48.0958 0000958  74.4517 117.4812 15.97912312  2075"}}, "geometry": {"type": "Point", "coordinates": [76.76017644934004, 36.25003335940014]}}, {"type": "Feature", "properties": {"norad_id": 66947, "name": "STARLINK-36089", "group": "last-30-days", "lat": 38.44031048838944, "lon": 79.92479272184204, "alt_km": 280.37207725606004, "timestamp": "2025-12-14T03:55:51.550887+00:00", "meta": {"OBJECT_NAME": "STARLINK-36089", "OBJECT_ID": "2025-286Y", "EPOCH": "2025-12-13T06:00:02.000160", "MEAN_MOTION": 15.98085402, "ECCENTRICITY": 0.00010292, "INCLINATION": 53.1565, "RA_OF_ASC_NODE": 48.0902, "ARG_OF_PERICENTER": 81.1733, "MEAN_ANOMALY": 113.5225, "EPHEMERIS_TYPE": 0, "CLASSIFICATION_TYPE": "U", "NORAD_CAT_ID": 66947, "ELEMENT_SET_NO": 999, "REV_AT_EPOCH": 207, "BSTAR": -0.0027569073, "MEAN_MOTION_DOT": -0.01297286, "MEAN_MOTION_DDOT": 0.00052202493}, "tle": {"line1": "1 66947U 25286Y   25347.25002315 -.01297286  52202-3 -27569-2 0  9996", "line2": "2 66947  53.1565  48.0902 0001029  81.1733 113.5225 15.98085402  2077"}}, "geometry": {"type": "Point", "coordinates": [79.92479272184204, 38.44031048838944]}}, {"type": "Feature", "properties": {"norad_id": 66948, "name": "STARLINK-36116", "group": "last-30-days", "lat": 37.50441100416673, "lon": 78.53458737368523, "alt_km": 280.8518790190783, "timestamp": "2025-12-14T03:55:51.550897+00:00", "meta": {"OBJECT_NAME": "STARLINK-36116", "OBJECT_ID": "2025-286Z", "EPOCH": "2025-12-13T06:00:02.000160", "MEAN_MOTION": 15.98015725, "ECCENTRICITY": 9.05e-05, "INCLINATION": 53.1566, "RA_OF_ASC_NODE": 48.0926, "ARG_OF_PERICENTER": 82.8676, "MEAN_ANOMALY": 110.6309, "EPHEMERIS_TYPE": 0, "CLASSIFICATION_TYPE": "U", "NORAD_CAT_ID": 66948, "ELEMENT_SET_NO": 999, "REV_AT_EPOCH": 207, "BSTAR": -0.0027783853, "MEAN_MOTION_DOT": -0.01302239, "MEAN_MOTION_DDOT": 0.00052527744}, "tle": {"line1": "1 66948U 25286Z   25347.25002315 -.01302239  52528-3 -27784-2 0  9992", "line2": "2 66948  53.1566  48.0926 0000905  82.8676 110.6309 15.98015725  2073"}}, "geometry": {"type": "Point", "coordinates": [78.53458737368523, 37.50441100416673]}}, {"type": "Feature", "properties": {"norad_id": 66949, "name": "STARLINK-36096", "group": "last-30-days", "lat": 39.37211493122212, "lon": 81.37120393462446, "alt_km": 280.0180376737617, "timestamp": "2025-12-14T03:55:51.550907+00:00", "meta": {"OBJECT_NAME": "STARLINK-36096", "OBJECT_ID": "2025-286AA", "EPOCH": "2025-12-13T06:00:02.000160", "MEAN_MOTION": 15.98165076, "ECCENTRICITY": 9.8e-05, "INCLINATION": 53.1566, "RA_OF_ASC_NODE": 48.0876, "ARG_OF_PERICENTER": 71.6199, "MEAN_ANOMALY": 124.2994, "EPHEMERIS_TYPE": 0, "CLASSIFICATION_TYPE": "U", "NORAD_CAT_ID": 66949, "ELEMENT_SET_NO": 999, "REV_AT_EPOCH": 207, "BSTAR": -0.0027650469, "MEAN_MOTION_DOT": -0.01306792, "MEAN_MOTION_DDOT": 0.00052945902}, "tle": {"line1": "1 66949U 25286AA  25347.25002315 -.01306792  52946-3 -27650-2 0  9997", "line2": "2 66949  53.1566  48.0876 0000980  71.6199 124.2994 15.98165076  2073"}}, "geometry": {"type": "Point", "coordinates": [81.37120393462446, 39.37211493122212]}}, {"type": "Feature", "properties": {"norad_id": 66950, "name": "STARLINK-36111", "group": "last-30-days", "lat": 41.271083999579275, "lon": 84.54381953847272, "alt_km": 279.40862986184766, "timestamp": "2025-12-14T03:55:51.550916+00:00", "meta": {"OBJECT_NAME": "STARLINK-36111", "OBJECT_ID": "2025-286AB", "EPOCH": "2025-12-13T06:00:02.000160", "MEAN_MOTION": 15.98330251, "ECCENTRICITY": 8.893e-05, "INCLINATION": 53.1565, "RA_OF_ASC_NODE": 48.0823, "ARG_OF_PERICENTER": 82.1686, "MEAN_ANOMALY": 116.3072, "EPHEMERIS_TYPE": 0, "CLASSIFICATION_TYPE": "U", "NORAD_CAT_ID": 66950, "ELEMENT_SET_NO": 999, "REV_AT_EPOCH": 207, "BSTAR": -0.0027591449, "MEAN_MOTION_DOT": -0.01315979, "MEAN_MOTION_DDOT": 0.00053719718}, "tle": {"line1": "1 66950U 25286AB  25347.25002315 -.01315979  53720-3 -27591-2 0  9991", "line2": "2 66950  53.1565  48.0823 0000889  82.1686 116.3072 15.98330251  2070"}}, "geometry": {"type": "Point", "coordinates": [84.54381953847272, 41.271083999579275]}}, {"type": "Feature", "properties": {"norad_id": 66951, "name": "STARLINK-35999", "group": "last-30-days", "lat": 42.24663074566195, "lon": 86.31030402999785, "alt_km": 279.05375641402316, "timestamp": "2025-12-14T03:55:51.550928+00:00", "meta": {"OBJECT_NAME": "STARLINK-35999", "OBJECT_ID": "2025-286AC", "EPOCH": "2025-12-13T06:00:02.000160", "MEAN_MOTION": 15.98419233, "ECCENTRICITY": 8.553e-05, "INCLINATION": 53.1566, "RA_OF_ASC_NODE": 48.0793, "ARG_OF_PERICENTER": 84.3458, "MEAN_ANOMALY": 115.4879, "EPHEMERIS_TYPE": 0, "CLASSIFICATION_TYPE": "U", "NORAD_CAT_ID": 66951, "ELEMENT_SET_NO": 999, "REV_AT_EPOCH": 207, "BSTAR": -0.0027544312, "MEAN_MOTION_DOT": -0.01320238, "MEAN_MOTION_DDOT": 0.00054087897}, "tle": {"line1": "1 66951U 25286AC  25347.25002315 -.01320238  54088-3 -27544-2 0  9992", "line2": "2 66951  53.1566  48.0793 0000855  84.3458 115.4879 15.98419233  2075"}}, "geometry": {"type": "Point", "coordinates": [86.31030402999785, 42.24663074566195]}}, {"type": "Feature", "properties": {"norad_id": 66952, "name": "STARLINK-36122", "group": "last-30-days", "lat": 40.353251044776655, "lon": 82.9696184738184, "alt_km": 279.7603286581316, "timestamp": "2025-12-14T03:55:51.550941+00:00", "meta": {"OBJECT_NAME": "STARLINK-36122", "OBJECT_ID": "2025-286AD", "EPOCH": "2025-12-13T06:00:02.000160", "MEAN_MOTION": 15.98251024, "ECCENTRICITY": 8.854e-05, "INCLINATION": 53.1567, "RA_OF_ASC_NODE": 48.0849, "ARG_OF_PERICENTER": 81.0453, "MEAN_ANOMALY": 116.1775, "EPHEMERIS_TYPE": 0, "CLASSIFICATION_TYPE": "U", "NORAD_CAT_ID": 66952, "ELEMENT_SET_NO": 999, "REV_AT_EPOCH": 207, "BSTAR": -0.0027634168, "MEAN_MOTION_DOT": -0.01312231, "MEAN_MOTION_DDOT": 0.00053396569}, "tle": {"line1": "1 66952U 25286AD  25347.25002315 -.01312231  53397-3 -27634-2 0  9999", "line2": "2 66952  53.1567  48.0849 0000885  81.0453 116.1775 15.98251024  2076"}}, "geometry": {"type": "Point", "coordinates": [82.9696184738184, 40.353251044776655]}}, {"type": "Feature", "properties": {"norad_id": 66953, "name": "HULIANWANG DIGUI-114", "group": "last-30-days", "lat": 3.872357761768149, "lon": -14.125649450925566, "alt_km": 1012.7636299242304, "timestamp": "2025-12-14T03:55:51.550954+00:00", "meta": {"OBJECT_NAME": "HULIANWANG DIGUI-114", "OBJECT_ID": "2025-287A", "EPOCH": "2025-12-11T05:43:48.442368", "MEAN_MOTION": 13.68688345, "ECCENTRICITY": 0.00085506, "INCLINATION": 86.4966, "RA_OF_ASC_NODE": 346.7027, "ARG_OF_PERICENTER": 209.4482, "MEAN_ANOMALY": 150.6197, "EPHEMERIS_TYPE": 0, "CLASSIFICATION_TYPE": "U", "NORAD_CAT_ID": 66953, "ELEMENT_SET_NO": 999, "REV_AT_EPOCH": 32, "BSTAR": 1.3583638e-05, "MEAN_MOTION_DOT": 2.8e-07, "MEAN_MOTION_DDOT": 0}, "tle": {"line1": "1 66953U 25287A   25345.23875512  .00000028  00000+0  13584-4 0  9999", "line2": "2 66953  86.4966 346.7027 0008550 209.4482 150.6197 13.68688345   322"}}, "geometry": {"type": "Point", "coordinates": [-14.125649450925566, 3.872357761768149]}}, {"type": "Feature", "properties": {"norad_id": 66954, "name": "HULIANWANG DIGUI-115", "group": "last-30-days", "lat": 5.750452573224957, "lon": -14.00699504654124, "alt_km": 1012.238963641008, "timestamp": "2025-12-14T03:55:51.550964+00:00", "meta": {"OBJECT_NAME": "HULIANWANG DIGUI-115", "OBJECT_ID": "2025-287B", "EPOCH": "2025-12-12T22:04:40.066752", "MEAN_MOTION": 13.68791491, "ECCENTRICITY": 0.00085807, "INCLINATION": 86.4972, "RA_OF_ASC_NODE": 346.0929, "ARG_OF_PERICENTER": 203.4979, "MEAN_ANOMALY": 156.5789, "EPHEMERIS_TYPE": 0, "CLASSIFICATION_TYPE": "U", "NORAD_CAT_ID": 66954, "ELEMENT_SET_NO": 999, "REV_AT_EPOCH": 55, "BSTAR": 2.5045265e-05, "MEAN_MOTION_DOT": 3.8e-07, "MEAN_MOTION_DDOT": 0}, "tle": {"line1": "1 66954U 25287B   25346.91990818  .00000038  00000+0  25045-4 0  9999", "line2": "2 66954  86.4972 346.0929 0008580 203.4979 156.5789 13.68791491   556"}}, "geometry": {"type": "Point", "coordinates": [-14.00699504654124, 5.750452573224957]}}]}